GLOBALSTAR M094         
1 39074U 13005C   25181.55878590 -.00000107  00000+0 -17522-4 0  9996
2 39074  51.9939 141.4024 0000432 349.4172  10.6685 12.62262841574068
GLOBALSTAR M096         
1 39075U 13005D   25181.49275106 -.00000116  00000+0 -66635-4 0  9993
2 39075  52.0043 190.1295 0000251 273.1384  86.9454 12.62265601572970
GLOBALSTAR M078         
1 39076U 13005E   25181.54554623 -.00000055  00000+0  27411-3 0  9993
2 39076  51.9875 274.4621 0001051 178.5244 181.5626 12.62258081571609
GLOBALSTAR M095         
1 39077U 13005F   25181.41342447 -.00000092  00000+0  65508-4 0  9990
2 39077  51.9811 272.0541 0000577 181.4546 178.6319 12.62267868571446
GLOBALSTAR M087         
1 52888U 22064A   25181.04823125 -.00000085  00000+0  10402-3 0  9990
2 52888  52.0006  54.6448 0000644  68.3316 291.7619 12.62263648146666
